{"type": "FeatureCollection", "features": [ {"type": "Feature", "properties": {"norad_id": 32289, "name": "YAOGAN-3", "group": "resource", "lat": -80.07606435528398, "lon": 55.31272659834965, "alt_km": 606.9770670463322, "timestamp": "2025-12-02T15:49:06.839435+00:00", "meta": {"OBJECT_NAME": "YAOGAN-3", "OBJECT_ID": "2007-055A", "EPOCH": "2025-12-02T06:31:22.593792", "MEAN_MOTION": 14.89774559, "ECCENTRICITY": 0.00015158, "INCLINATION": 97.8379, "RA_OF_ASC_NODE": 2.992, "ARG_OF_PERICENTER": 77.2587, "MEAN_ANOMALY": 282.88, "EPHEMERIS_TYPE": 0, "CLASSIFICATION_TYPE": "U", "NORAD_CAT_ID": 32289, "ELEMENT_SET_NO": 999, "REV_AT_EPOCH": 97653, "BSTAR": 0.00030014516, "MEAN_MOTION_DOT": 2.823e-05, "MEAN_MOTION_DDOT": 0}, "tle": {"line1": "1 32289U 07055A   25336.27178928  .00002823  00000+0  30015-3 0  9990", "line2": "2 32289  97.8379   2.9920 0001515  77.2587 282.8800 14.89774559976536"}}, "geometry": {"type": "Point", "coordinates": [55.31272659834965, -80.07606435528398]}}, {"type": "Feature", "properties": {"norad_id": 32376, "name": "COSMO-SKYMED 2", "group": "resource", "lat": 65.82263779686667, "lon": -3.8939284981370483, "alt_km": 615.1528646657671, "timestamp": "2025-12-02T15:49:06.839445+00:00", "meta": {"OBJECT_NAME": "COSMO-SKYMED 2", "OBJECT_ID": "2007-059A", "EPOCH": "2025-12-02T10:27:01.303200", "MEAN_MOTION": 14.82144442, "ECCENTRICITY": 0.0001542, "INCLINATION": 97.8812, "RA_OF_ASC_NODE": 157.9141, "ARG_OF_PERICENTER": 90.7896, "MEAN_ANOMALY": 269.3494, "EPHEMERIS_TYPE": 0, "CLASSIFICATION_TYPE": "U", "NORAD_CAT_ID": 32376, "ELEMENT_SET_NO": 999, "REV_AT_EPOCH": 97285, "BSTAR": 0.00011118, "MEAN_MOTION_DOT": 8.33e-06, "MEAN_MOTION_DDOT": 0}, "tle": {"line1": "1 32376U 07059A   25336.43543175  .00000833  00000+0  11118-3 0  9991", "line2": "2 32376  97.8812 157.9141 0001542  90.7896 269.3494 14.82144442972859"}}, "geometry": {"type": "Point", "coordinates": [-3.8939284981370483, 65.82263779686667]}}, {"type": "Feature", "properties": {"norad_id": 32382, "name": "RADARSAT-2", "group": "resource", "lat": 27.619291882911245, "lon": 165.92632199520114, "alt_km": 790.2367575527524, "timestamp": "2025-12-02T15:49:06.839456+00:00", "meta": {"OBJECT_NAME": "RADARSAT-2", "OBJECT_ID": "2007-061A", "EPOCH": "2025-12-02T06:42:50.270400", "MEAN_MOTION": 14.29983156, "ECCENTRICITY": 0.00010825, "INCLINATION": 98.58, "RA_OF_ASC_NODE": 341.0218, "ARG_OF_PERICENTER": 90.2858, "MEAN_ANOMALY": 269.8448, "EPHEMERIS_TYPE": 0, "CLASSIFICATION_TYPE": "U", "NORAD_CAT_ID": 32382, "ELEMENT_SET_NO": 999, "REV_AT_EPOCH": 93781, "BSTAR": 6.8660788e-05, "MEAN_MOTION_DOT": 1.33e-06, "MEAN_MOTION_DDOT": 0}, "tle": {"line1": "1 32382U 07061A   25336.27974850  .00000133  00000+0  68661-4 0  9990", "line2": "2 32382  98.5800 341.0218 0001082  90.2858 269.8448 14.29983156937819"}}, "geometry": {"type": "Point", "coordinates": [165.92632199520114, 27.619291882911245]}}, {"type": "Feature", "properties": {"norad_id": 32783, "name": "CARTOSAT-2A", "group": "resource", "lat": 9.555646416890488, "lon": 25.47572379979298, "alt_km": 626.575853092344, "timestamp": "2025-12-02T15:49:06.839467+00:00", "meta": {"OBJECT_NAME": "CARTOSAT-2A", "OBJECT_ID": "2008-021A", "EPOCH": "2025-12-02T07:39:22.019904", "MEAN_MOTION": 14.78904895, "ECCENTRICITY": 0.00125597, "INCLINATION": 97.7945, "RA_OF_ASC_NODE": 26.4675, "ARG_OF_PERICENTER": 37.1426, "MEAN_ANOMALY": 323.0652, "EPHEMERIS_TYPE": 0, "CLASSIFICATION_TYPE": "U", "NORAD_CAT_ID": 32783, "ELEMENT_SET_NO": 999, "REV_AT_EPOCH": 94970, "BSTAR": 0.00017745039, "MEAN_MOTION_DOT": 1.259e-05, "MEAN_MOTION_DDOT": 0}, "tle": {"line1": "1 32783U 08021A   25336.31900486  .00001259  00000+0  17745-3 0  9997", "line2": "2 32783  97.7945  26.4675 0012559  37.1426 323.0652 14.78904895949706"}}, "geometry": {"type": "Point", "coordinates": [25.47572379979298, 9.555646416890488]}}, {"type": "Feature", "properties": {"norad_id": 33320, "name": "HUANJING 1A (HJ-1A)", "group": "resource", "lat": 72.47366691237754, "lon": -59.82195552746024, "alt_km": 597.5299733168958, "timestamp": "2025-12-02T15:49:06.839477+00:00", "meta": {"OBJECT_NAME": "HUANJING 1A (HJ-1A)", "OBJECT_ID": "2008-041A", "EPOCH": "2025-12-02T07:23:29.992992", "MEAN_MOTION": 14.83340591, "ECCENTRICITY": 0.00206811, "INCLINATION": 97.6535, "RA_OF_ASC_NODE": 325.043, "ARG_OF_PERICENTER": 66.6475, "MEAN_ANOMALY": 293.6913, "EPHEMERIS_TYPE": 0, "CLASSIFICATION_TYPE": "U", "NORAD_CAT_ID": 33320, "ELEMENT_SET_NO": 999, "REV_AT_EPOCH": 92921, "BSTAR": 0.00024703614, "MEAN_MOTION_DOT": 1.98e-05, "MEAN_MOTION_DDOT": 0}, "tle": {"line1": "1 33320U 08041A   25336.30798603  .00001980  00000+0  24704-3 0  9996", "line2": "2 33320  97.6535 325.0430 0020681  66.6475 293.6913 14.83340591929210"}}, "geometry": {"type": "Point", "coordinates": [-59.82195552746024, 72.47366691237754]}}, {"type": "Feature", "properties": {"norad_id": 33321, "name": "HUANJING 1B (HJ-1B)", "group": "resource", "lat": -43.90004183825666, "lon": -23.47612555509329, "alt_km": 650.8010698282833, "timestamp": "2025-12-02T15:49:06.839503+00:00", "meta": {"OBJECT_NAME": "HUANJING 1B (HJ-1B)", "OBJECT_ID": "2008-041B", "EPOCH": "2025-12-02T06:18:06.792768", "MEAN_MOTION": 14.82777192, "ECCENTRICITY": 0.00381363, "INCLINATION": 97.6395, "RA_OF_ASC_NODE": 328.7237, "ARG_OF_PERICENTER": 108.8738, "MEAN_ANOMALY": 251.6618, "EPHEMERIS_TYPE": 0, "CLASSIFICATION_TYPE": "U", "NORAD_CAT_ID": 33321, "ELEMENT_SET_NO": 999, "REV_AT_EPOCH": 92922, "BSTAR": 0.00019698886, "MEAN_MOTION_DOT": 1.561e-05, "MEAN_MOTION_DDOT": 0}, "tle": {"line1": "1 33321U 08041B   25336.26257862  .00001561  00000+0  19699-3 0  9991", "line2": "2 33321  97.6395 328.7237 0038136 108.8738 251.6618 14.82777192929222"}}, "geometry": {"type": "Point", "coordinates": [-23.47612555509329, -43.90004183825666]}}, {"type": "Feature", "properties": {"norad_id": 33331, "name": "GEOEYE 1", "group": "resource", "lat": -53.20503733856273, "lon": -142.94809195533048, "alt_km": 684.6180961500695, "timestamp": "2025-12-02T15:49:06.839514+00:00", "meta": {"OBJECT_NAME": "GEOEYE 1", "OBJECT_ID": "2008-042A", "EPOCH": "2025-12-02T06:33:23.103648", "MEAN_MOTION": 14.64788997, "ECCENTRICITY": 0.00030362, "INCLINATION": 98.1265, "RA_OF_ASC_NODE": 47.6841, "ARG_OF_PERICENTER": 321.8904, "MEAN_ANOMALY": 38.2084, "EPHEMERIS_TYPE": 0, "CLASSIFICATION_TYPE": "U", "NORAD_CAT_ID": 33331, "ELEMENT_SET_NO": 999, "REV_AT_EPOCH": 92132, "BSTAR": 0.00017124169, "MEAN_MOTION_DOT": 8.66e-06, "MEAN_MOTION_DDOT": 0}, "tle": {"line1": "1 33331U 08042A   25336.27318407  .00000866  00000+0  17124-3 0  9995", "line2": "2 33331  98.1265  47.6841 0003036 321.8904  38.2084 14.64788997921320"}}, "geometry": {"type": "Point", "coordinates": [-142.94809195533048, -53.20503733856273]}}, {"type": "Feature", "properties": {"norad_id": 33396, "name": "THEOS", "group": "resource", "lat": -81.38748334529946, "lon": 121.21751674356103, "alt_km": 833.1479658357093, "timestamp": "2025-12-02T15:49:06.839525+00:00", "meta": {"OBJECT_NAME": "THEOS", "OBJECT_ID": "2008-049A", "EPOCH": "2025-12-02T07:47:03.489216", "MEAN_MOTION": 14.2009278, "ECCENTRICITY": 0.00010884, "INCLINATION": 98.5882, "RA_OF_ASC_NODE": 34.7205, "ARG_OF_PERICENTER": 100.5129, "MEAN_ANOMALY": 259.617, "EPHEMERIS_TYPE": 0, "CLASSIFICATION_TYPE": "U", "NORAD_CAT_ID": 33396, "ELEMENT_SET_NO": 999, "REV_AT_EPOCH": 89002, "BSTAR": 6.7756481e-05, "MEAN_MOTION_DOT": 1.02e-06, "MEAN_MOTION_DDOT": 0}, "tle": {"line1": "1 33396U 08049A   25336.32434594  .00000102  00000+0  67756-4 0  9995", "line2": "2 33396  98.5882  34.7205 0001088 100.5129 259.6170 14.20092780890024"}}, "geometry": {"type": "Point", "coordinates": [121.21751674356103, -81.38748334529946]}}, {"type": "Feature", "properties": {"norad_id": 33412, "name": "COSMO-SKYMED 3", "group": "resource", "lat": 28.264791105179587, "lon": 11.13427719052234, "alt_km": 543.7692615184324, "timestamp": "2025-12-02T15:49:06.839536+00:00", "meta": {"OBJECT_NAME": "COSMO-SKYMED 3", "OBJECT_ID": "2008-054A", "EPOCH": "2025-12-02T07:10:12.110592", "MEAN_MOTION": 15.05197013, "ECCENTRICITY": 0.00152797, "INCLINATION": 97.8475, "RA_OF_ASC_NODE": 186.5154, "ARG_OF_PERICENTER": 208.6162, "MEAN_ANOMALY": 151.4227, "EPHEMERIS_TYPE": 0, "CLASSIFICATION_TYPE": "U", "NORAD_CAT_ID": 33412, "ELEMENT_SET_NO": 999, "REV_AT_EPOCH": 92730, "BSTAR": 0.0003722598, "MEAN_MOTION_DOT": 5.259e-05, "MEAN_MOTION_DDOT": 0}, "tle": {"line1": "1 33412U 08054A   25336.29875128  .00005259  00000+0  37226-3 0  9994", "line2": "2 33412  97.8475 186.5154 0015279 208.6162 151.4227 15.05197013927309"}}, "geometry": {"type": "Point", "coordinates": [11.13427719052234, 28.264791105179587]}}, {"type": "Feature", "properties": {"norad_id": 33446, "name": "YAOGAN-4", "group": "resource", "lat": -51.72354495366227, "lon": 76.7009593188078, "alt_km": 633.7555793625634, "timestamp": "2025-12-02T15:49:06.839547+00:00", "meta": {"OBJECT_NAME": "YAOGAN-4", "OBJECT_ID": "2008-061A", "EPOCH": "2025-12-02T06:40:27.864192", "MEAN_MOTION": 14.82628721, "ECCENTRICITY": 0.00144944, "INCLINATION": 97.9168, "RA_OF_ASC_NODE": 266.481, "ARG_OF_PERICENTER": 358.2304, "MEAN_ANOMALY": 1.8855, "EPHEMERIS_TYPE": 0, "CLASSIFICATION_TYPE": "U", "NORAD_CAT_ID": 33446, "ELEMENT_SET_NO": 999, "REV_AT_EPOCH": 91648, "BSTAR": 0.00026740206, "MEAN_MOTION_DOT": 2.104e-05, "MEAN_MOTION_DDOT": 0}, "tle": {"line1": "1 33446U 08061A   25336.27810028  .00002104  00000+0  26740-3 0  9990", "line2": "2 33446  97.9168 266.4810 0014494 358.2304   1.8855 14.82628721916482"}}, "geometry": {"type": "Point", "coordinates": [76.7009593188078, -51.72354495366227]}}]}